1 07530U 74089B 26162.30704456 -.00000029 00000+0 10909-3 0 9992 
2 07530 101.9901 175.4923 0012510 141.0738 232.1031 12.53697971359786 
1 14129U 83058B 26158.17238870 -.00000194 00000+0 00000+0 0 9992 
2 14129 25.9048 221.2242 6014266 112.9115 319.2048 2.05872980295281 
1 14781U 84021B 26161.91204285 .00001180 00000+0 12569-3 0 9998 
2 14781 97.8055 127.5569 0007049 193.6299 166.4730 14.90767762256190 
1 20442U 90005G 26162.25161899 .00000095 00000+0 50788-4 0 9999 
2 20442 98.8852 183.8935 0010805 219.4308 140.6090 14.34121336901549 
1 22825U 93061C 26162.12626692 .00000071 00000+0 43872-4 0 9994 
2 22825 98.6880 229.5418 0009448 115.4791 244.7370 14.30940634706132 
1 22826U 93061D 26162.17739027 .00000069 00000+0 42973-4 0 9995 
2 22826 98.6828 229.5098 0010059 100.5530 259.6787 14.31367352706458 
1 23439U 94085A 26162.17381222 -.00000043 00000+0 -21598-4 0 9997 
2 23439 64.8187 312.9415 0155761 4.9877 355.2557 11.27583624295223 
1 24278U 96046B 26162.17452701 .00000010 00000+0 42847-4 0 9991 
2 24278 98.5245 11.8704 0350824 111.9931 251.8871 13.53273891472351 
1 25397U 98043D 26162.23421909 .00000045 00000+0 39618-4 0 9996 
2 25397 99.0066 154.8428 0000714 177.8276 182.2905 14.24427245450483 
1 25544U 98067A 26162.12593356 .00002535 00000+0 53892-4 0 9996 
2 25544 51.6353 330.0904 0005092 172.2857 187.8210 15.49161426570819 
1 26931U 01043C 26162.01291661 .00000063 00000+0 54402-4 0 9999 
2 26931 67.0510 260.2410 0006098 264.4178 95.6229 14.31953913289564 
1 27607U 02058C 26162.22122948 .00000841 00000+0 11657-3 0 9999 
2 27607 64.5506 147.4439 0075409 263.5789 95.6727 14.83033486263576 
1 27844U 03031E 26161.99583856 .00000244 00000+0 12458-3 0 9993 
2 27844 98.6735 170.6324 0009111 196.3678 163.7208 14.24331910190791 
1 27848U 03031J 26161.55949117 .00000214 00000+0 11309-3 0 9996 
2 27848 98.6767 169.9197 0008636 217.5980 142.4596 14.23617305190431 
1 27939U 03042A 26162.31610131 .00000952 00000+0 15488-3 0 9996 
2 27939 98.3474 346.5095 0010049 290.5789 194.1097 14.73457531214685 
1 28895U 05043F 26161.67587716 .00001250 00000+0 20445-3 0 9992 
2 28895 98.2977 317.1612 0013240 222.2954 137.7233 14.72614047100792 
1 32785U 08021C 26162.21622426 .00004490 00000+0 28480-3 0 9999 
2 32785 97.8272 143.5105 0010316 56.6803 303.5412 15.09396423984292 
1 32791U 08021J 26162.25964504 .00015274 00000+0 48820-3 0 9998 
2 32791 97.7517 159.8749 0001967 23.1856 336.9473 15.32546772986382 
1 32953U 08025A 26162.30404334 .00000033 00000+0 17017-3 0 9999 
2 32953 82.5050 359.1008 0019092 327.1548 32.8344 12.43178948818964 
1 33499U 09002H 26162.18461535 .00001109 00000+0 14299-3 0 9997 
2 33499 98.1193 84.5317 0006865 318.6563 41.4129 14.83108343935302 
1 35932U 09051B 26162.21632553 .00000804 00000+0 16844-3 0 9998 
2 35932 98.4041 70.0006 0005629 224.4191 135.6559 14.62470076888283 
1 35933U 09051C 26162.22265768 .00000660 00000+0 14239-3 0 9996 
2 35933 98.3971 69.6549 0003964 240.4948 119.5857 14.61710634888311 
1 35935U 09051E 26162.20832687 .00000614 00000+0 13683-3 0 9997 
2 35935 98.4055 68.8386 0006131 256.4621 103.5895 14.60431670887864 
1 36122U 09072B 26162.23995204 .00000095 00000+0 36449-3 0 9995 
2 36122 100.4019 116.1667 0006814 246.4727 113.5671 13.16439032792228 
1 37224U 10062C 26162.23580944 .00001933 00000+0 18826-3 0 9992 
2 37224 71.9707 93.8194 0012430 76.0877 284.1675 14.93718504115754 
1 37839U 11058B 26161.86742604 .00000399 00000+0 68784-4 0 9995 
2 37839 19.9621 346.8221 0018563 6.6957 22.8320 14.13775053758139 
1 37841U 11058D 26162.13554769 .00000354 00000+0 48274-4 0 9995 
2 37841 19.9714 96.0961 0011916 137.3112 254.6975 14.11574277756963 
1 39090U 13009E 26161.72041886 .00000257 00000+0 10093-3 0 9995 
2 39090 98.3921 342.1141 0007478 247.3445 112.6951 14.37159492696131 
1 39417U 13066B 26162.14161212 .00003110 00000+0 24354-3 0 9990 
2 39417 97.8086 124.4456 0040187 268.8905 90.7715 15.01151583679829 
1 39430U 13066Q 26162.26179428 .00001813 00000+0 27627-3 0 9990 
2 39430 97.6495 3.0988 0130175 96.3401 265.2649 14.69437683669049 
